{
  "norad_id": 51748,
  "name": "STARLINK-3501",
  "history": [
    {
      "epoch": "2026-03-28T17:15:34.191936",
      "apogee_km": 540.635443522081,
      "perigee_km": 538.8550573461098,
      "latitude_deg": -17.783072252831015,
      "longitude_deg": 143.83799103996716,
      "semi_major_axis_km": 6917.882250434095,
      "eccentricity": 0.00012868,
      "inclination_deg": 53.2169,
      "raan_deg": 223.6953,
      "arg_perigee_deg": 89.8119,
      "mean_anomaly_deg": 270.302,
      "mean_motion_rev_day": 15.08839391
    }
  ]
}